[
    {
        "Altitude(m)": 576892.6647987351,
        "Argument of Periapsis(deg)": -0.015068773855314936,
        "Eccentricity": 0.0,
        "Inclination(deg)": 97.0,
        "Latitude(deg)": 81.894594121886,
        "Longitude(deg)": -160.58287632465286,
        "Mean Anomaly(deg)": 85.83709551279166,
        "RAAN(deg)": 0.003964702412340513,
        "Satellite Name": "Starlink Shell 3 1594",
        "Satellite Number": 1594,
        "Semi-Major Axis(m)": 6938478.169268562,
        "Time(s)": 380
    },
    {
        "Altitude(m)": 576913.5589423359,
        "Argument of Periapsis(deg)": -0.015465320535717962,
        "Eccentricity": 0.0,
        "Inclination(deg)": 97.0,
        "Latitude(deg)": 82.19433008190973,
        "Longitude(deg)": -164.5681541403767,
        "Mean Anomaly(deg)": 86.4625717104967,
        "RAAN(deg)": 0.0040690366863494745,
        "Satellite Name": "Starlink Shell 3 1594",
        "Satellite Number": 1594,
        "Semi-Major Axis(m)": 6938478.169268562,
        "Time(s)": 390
    },
    {
        "Altitude(m)": 576931.1052598667,
        "Argument of Periapsis(deg)": -0.015861867216120987,
        "Eccentricity": 0.0,
        "Inclination(deg)": 97.0,
        "Latitude(deg)": 82.45475924440935,
        "Longitude(deg)": -168.84476777230395,
        "Mean Anomaly(deg)": 87.08804790820176,
        "RAAN(deg)": 0.004173370960358435,
        "Satellite Name": "Starlink Shell 3 1594",
        "Satellite Number": 1594,
        "Semi-Major Axis(m)": 6938478.169268562,
        "Time(s)": 400
    },
    {
        "Altitude(m)": 576945.293901299,
        "Argument of Periapsis(deg)": -0.01625841389652401,
        "Eccentricity": 0.0,
        "Inclination(deg)": 97.0,
        "Latitude(deg)": 82.67169266704875,
        "Longitude(deg)": -173.39607951396516,
        "Mean Anomaly(deg)": 87.7135241059068,
        "RAAN(deg)": 0.004277705234367395,
        "Satellite Name": "Starlink Shell 3 1594",
        "Satellite Number": 1594,
        "Semi-Major Axis(m)": 6938478.169268562,
        "Time(s)": 410
    },
    {
        "Altitude(m)": 576956.1169091993,
        "Argument of Periapsis(deg)": -0.016654960576927034,
        "Eccentricity": 0.0,
        "Inclination(deg)": 97.0,
        "Latitude(deg)": 82.84117746260401,
        "Longitude(deg)": -178.18993384317017,
        "Mean Anomaly(deg)": 88.33900030361184,
        "RAAN(deg)": 0.0043820395083763565,
        "Satellite Name": "Starlink Shell 3 1594",
        "Satellite Number": 1594,
        "Semi-Major Axis(m)": 6938478.169268562,
        "Time(s)": 420
    },
    {
        "Altitude(m)": 576963.5682224456,
        "Argument of Periapsis(deg)": -0.01705150725733006,
        "Eccentricity": 0.0,
        "Inclination(deg)": 97.0,
        "Latitude(deg)": 82.95978781070852,
        "Longitude(deg)": 176.822350592558,
        "Mean Anomaly(deg)": 88.9644765013169,
        "RAAN(deg)": 0.004486373782385317,
        "Satellite Name": "Starlink Shell 3 1594",
        "Satellite Number": 1594,
        "Semi-Major Axis(m)": 6938478.169268562,
        "Time(s)": 430
    },
    {
        "Altitude(m)": 576967.6436790844,
        "Argument of Periapsis(deg)": -0.017448053937733084,
        "Eccentricity": 0.0,
        "Inclination(deg)": 97.0,
        "Latitude(deg)": 83.02492914840347,
        "Longitude(deg)": 171.70469409516778,
        "Mean Anomaly(deg)": 89.58995269902192,
        "RAAN(deg)": 0.004590708056394278,
        "Satellite Name": "Starlink Shell 3 1594",
        "Satellite Number": 1594,
        "Semi-Major Axis(m)": 6938478.169268562,
        "Time(s)": 440
    },
    {
        "Altitude(m)": 576968.3410182447,
        "Argument of Periapsis(deg)": -0.017844600618136107,
        "Eccentricity": 0.0,
        "Inclination(deg)": 97.0,
        "Latitude(deg)": 83.03510174637982,
        "Longitude(deg)": 166.53228828961866,
        "Mean Anomaly(deg)": 90.21542889672696,
        "RAAN(deg)": 0.0046950423304032395,
        "Satellite Name": "Starlink Shell 3 1594",
        "Satellite Number": 1594,
        "Semi-Major Axis(m)": 6938478.169268562,
        "Time(s)": 450
    },
    {
        "Altitude(m)": 576965.6598812174,
        "Argument of Periapsis(deg)": -0.018241147298539134,
        "Eccentricity": 0.0,
        "Inclination(deg)": 97.0,
        "Latitude(deg)": 82.99006640295732,
        "Longitude(deg)": 161.38533592644544,
        "Mean Anomaly(deg)": 90.840905094432,
        "RAAN(deg)": 0.0047993766044122,
        "Satellite Name": "Starlink Shell 3 1594",
        "Satellite Number": 1594,
        "Semi-Major Axis(m)": 6938478.169268562,
        "Time(s)": 460
    },
    {
        "Altitude(m)": 576959.6018116097,
        "Argument of Periapsis(deg)": -0.018637693978942157,
        "Eccentricity": 0.0,
        "Inclination(deg)": 97.0,
        "Latitude(deg)": 82.89087178609847,
        "Longitude(deg)": 156.34169098276055,
        "Mean Anomaly(deg)": 91.46638129213706,
        "RAAN(deg)": 0.00490371087842116,
        "Satellite Name": "Starlink Shell 3 1594",
        "Satellite Number": 1594,
        "Semi-Major Axis(m)": 6938478.169268562,
        "Time(s)": 470
    },
    {
        "Altitude(m)": 576950.1702546176,
        "Argument of Periapsis(deg)": -0.019034240659345183,
        "Eccentricity": 0.0,
        "Inclination(deg)": 97.0,
        "Latitude(deg)": 82.7397364350206,
        "Longitude(deg)": 151.47001876060096,
        "Mean Anomaly(deg)": 92.0918574898421,
        "RAAN(deg)": 0.0050080451524301215,
        "Satellite Name": "Starlink Shell 3 1594",
        "Satellite Number": 1594,
        "Semi-Major Axis(m)": 6938478.169268562,
        "Time(s)": 480
    },
    {
        "Altitude(m)": 576937.3705554223,
        "Argument of Periapsis(deg)": -0.019430787339748207,
        "Eccentricity": 0.0,
        "Inclination(deg)": 97.0,
        "Latitude(deg)": 82.53981495843085,
        "Longitude(deg)": 146.82489493293983,
        "Mean Anomaly(deg)": 92.71733368754715,
        "RAAN(deg)": 0.005112379426439082,
        "Satellite Name": "Starlink Shell 3 1594",
        "Satellite Number": 1594,
        "Semi-Major Axis(m)": 6938478.169268562,
        "Time(s)": 490
    },
    {
        "Altitude(m)": 576921.209956657,
        "Argument of Periapsis(deg)": -0.019827334020151237,
        "Eccentricity": 0.0,
        "Inclination(deg)": 97.0,
        "Latitude(deg)": 82.29490194413738,
        "Longitude(deg)": 142.4445425988559,
        "Mean Anomaly(deg)": 93.3428098852522,
        "RAAN(deg)": 0.005216713700448044,
        "Satellite Name": "Starlink Shell 3 1594",
        "Satellite Number": 1594,
        "Semi-Major Axis(m)": 6938478.169268562,
        "Time(s)": 500
    },
    {
        "Altitude(m)": 576901.697595038,
        "Argument of Periapsis(deg)": -0.020223880700554257,
        "Eccentricity": 0.0,
        "Inclination(deg)": 97.0,
        "Latitude(deg)": 82.00913075816604,
        "Longitude(deg)": 138.35107565937227,
        "Mean Anomaly(deg)": 93.96828608295723,
        "RAAN(deg)": 0.005321047974457004,
        "Satellite Name": "Starlink Shell 3 1594",
        "Satellite Number": 1594,
        "Semi-Major Axis(m)": 6938478.169268562,
        "Time(s)": 510
    },
    {
        "Altitude(m)": 576878.8444970762,
        "Argument of Periapsis(deg)": -0.020620427380957283,
        "Eccentricity": 0.0,
        "Inclination(deg)": 97.0,
        "Latitude(deg)": 81.68671105956305,
        "Longitude(deg)": 134.55254762750937,
        "Mean Anomaly(deg)": 94.59376228066229,
        "RAAN(deg)": 0.005425382248465965,
        "Satellite Name": "Starlink Shell 3 1594",
        "Satellite Number": 1594,
        "Semi-Major Axis(m)": 6938478.169268562,
        "Time(s)": 520
    },
    {
        "Altitude(m)": 576852.6635738894,
        "Argument of Periapsis(deg)": -0.021016974061360306,
        "Eccentricity": 0.0,
        "Inclination(deg)": 97.0,
        "Latitude(deg)": 81.33172820776193,
        "Longitude(deg)": 131.04592233312889,
        "Mean Anomaly(deg)": 95.21923847836733,
        "RAAN(deg)": 0.005529716522474927,
        "Satellite Name": "Starlink Shell 3 1594",
        "Satellite Number": 1594,
        "Semi-Major Axis(m)": 6938478.169268562,
        "Time(s)": 530
    },
    {
        "Altitude(m)": 576823.1696151685,
        "Argument of Periapsis(deg)": -0.021413520741763333,
        "Eccentricity": 0.0,
        "Inclination(deg)": 97.0,
        "Latitude(deg)": 80.94800893674756,
        "Longitude(deg)": 127.82021362859255,
        "Mean Anomaly(deg)": 95.84471467607237,
        "RAAN(deg)": 0.005634050796483887,
        "Satellite Name": "Starlink Shell 3 1594",
        "Satellite Number": 1594,
        "Semi-Major Axis(m)": 6938478.169268562,
        "Time(s)": 540
    },
    {
        "Altitude(m)": 576790.379282236,
        "Argument of Periapsis(deg)": -0.021810067422166356,
        "Eccentricity": 0.0,
        "Inclination(deg)": 97.0,
        "Latitude(deg)": 80.53904538229772,
        "Longitude(deg)": 124.8593109879178,
        "Mean Anomaly(deg)": 96.4701908737774,
        "RAAN(deg)": 0.005738385070492848,
        "Satellite Name": "Starlink Shell 3 1594",
        "Satellite Number": 1594,
        "Semi-Major Axis(m)": 6938478.169268562,
        "Time(s)": 550
    },
    {
        "Altitude(m)": 576754.3111002278,
        "Argument of Periapsis(deg)": -0.022206614102569383,
        "Eccentricity": 0.0,
        "Inclination(deg)": 97.0,
        "Latitude(deg)": 80.10796410799989,
        "Longitude(deg)": 122.14426207853165,
        "Mean Anomaly(deg)": 97.09566707148247,
        "RAAN(deg)": 0.005842719344501809,
        "Satellite Name": "Starlink Shell 3 1594",
        "Satellite Number": 1594,
        "Semi-Major Axis(m)": 6938478.169268562,
        "Time(s)": 560
    }
]